SAUDISAT 1C             
1 27607U 02058C   23206.34326886  .00001264  00000+0  19097-3 0  9991
2 27607  64.5542 147.9411 0065365 216.8335 142.8269 14.77423598107864
SAUDISAT 2              
1 28371U 04025F   23206.48446053  .00000460  00000+0  11763-3 0  9999
2 28371  98.4346 170.4779 0024378 307.8212  52.0777 14.54979943 11846
SAUDISAT 3              
1 31118U 07012B   23206.40824914  .00000495  00000+0  91100-4 0  9991
2 31118  98.0145 149.9649 0014952 358.7024   1.4141 14.69732417872287
PISAT                   
1 41784U 16059B   23206.31291159  .00001110  00000+0  21546-3 0  9992
2 41784  97.8676 237.9900 0030518 336.7256  23.2564 14.64796999364647
FLYING LAPTOP           
1 42831U 17042G   23206.55520672  .00001842  00000+0  18092-3 0  9994
2 42831  97.3902  41.9857 0015035  96.9903 263.3028 14.93218333328211
SALSAT                  
1 46495U 20068K   23206.40971566  .00005566  00000+0  36419-3 0  9992
2 46495  97.7708 154.8288 0015152 356.7951   3.3177 15.08090378154837
